[
  {
    "name": "PLEIADES NEO 3",
    "line1": "1 48268U 21034A   25356.25055134  .00000418  00000+0  59676-4 0  9993",
    "line2": "2 48268  97.8949  68.5555 0001400  90.0616 270.0757 14.81675064251454",
    "catNr": 48268
  },
  {
    "name": "PLEIADES NEO 4",
    "line1": "1 49070U 21073E   25354.73106020 -.00000340  00000+0 -36646-4 0  9998",
    "line2": "2 49070  97.8951  67.0538 0001324  89.6187 270.5178 14.81672177234945",
    "catNr": 49070
  }
]